{"type": "FeatureCollection", "features": [ {"type": "Feature", "properties": {"norad_id": 34738, "name": "COSMOS 2251 DEB", "group": "cosmos-2251-debris", "lat": -55.889592015353685, "lon": 113.15334426648074, "alt_km": 712.0860950227452, "timestamp": "2025-12-15T10:55:21.539793+00:00", "meta": {"OBJECT_NAME": "COSMOS 2251 DEB", "OBJECT_ID": "1993-036ZG", "EPOCH": "2025-12-14T14:09:58.133952", "MEAN_MOTION": 14.46307063, "ECCENTRICITY": 0.00474263, "INCLINATION": 74.0147, "RA_OF_ASC_NODE": 139.8074, "ARG_OF_PERICENTER": 285.7247, "MEAN_ANOMALY": 193.5007, "EPHEMERIS_TYPE": 0, "CLASSIFICATION_TYPE": "U", "NORAD_CAT_ID": 34738, "ELEMENT_SET_NO": 999, "REV_AT_EPOCH": 87885, "BSTAR": 0.00040310088, "MEAN_MOTION_DOT": 1.437e-05, "MEAN_MOTION_DDOT": 0}, "tle": {"line1": "1 34738U 93036ZG  25348.59025618  .00001437  00000+0  40310-3 0  9999", "line2": "2 34738  74.0147 139.8074 0047426 285.7247 193.5007 14.46307063878855"}}, "geometry": {"type": "Point", "coordinates": [113.15334426648074, -55.889592015353685]}}, {"type": "Feature", "properties": {"norad_id": 34750, "name": "COSMOS 2251 DEB", "group": "cosmos-2251-debris", "lat": -61.038709201969105, "lon": 47.5652262041073, "alt_km": 698.6726955976173, "timestamp": "2025-12-15T10:55:21.539803+00:00", "meta": {"OBJECT_NAME": "COSMOS 2251 DEB", "OBJECT_ID": "1993-036ZU", "EPOCH": "2025-12-14T20:43:34.718592", "MEAN_MOTION": 14.61347021, "ECCENTRICITY": 0.00387333, "INCLINATION": 74.1079, "RA_OF_ASC_NODE": 197.7077, "ARG_OF_PERICENTER": 150.0972, "MEAN_ANOMALY": 224.2981, "EPHEMERIS_TYPE": 0, "CLASSIFICATION_TYPE": "U", "NORAD_CAT_ID": 34750, "ELEMENT_SET_NO": 999, "REV_AT_EPOCH": 88262, "BSTAR": 0.00071877601, "MEAN_MOTION_DOT": 3.562e-05, "MEAN_MOTION_DDOT": 0}, "tle": {"line1": "1 34750U 93036ZU  25348.86359628  .00003562  00000+0  71878-3 0  9998", "line2": "2 34750  74.1079 197.7077 0038733 150.0972 224.2981 14.61347021882628"}}, "geometry": {"type": "Point", "coordinates": [47.5652262041073, -61.038709201969105]}}, {"type": "Feature", "properties": {"norad_id": 34752, "name": "COSMOS 2251 DEB", "group": "cosmos-2251-debris", "lat": 40.59657461461586, "lon": 9.3019299596388, "alt_km": 557.5275125610833, "timestamp": "2025-12-15T10:55:21.539814+00:00", "meta": {"OBJECT_NAME": "COSMOS 2251 DEB", "OBJECT_ID": "1993-036ZW", "EPOCH": "2025-12-14T10:43:21.705600", "MEAN_MOTION": 14.99982299, "ECCENTRICITY": 0.00476357, "INCLINATION": 74.0136, "RA_OF_ASC_NODE": 357.1306, "ARG_OF_PERICENTER": 125.1365, "MEAN_ANOMALY": 235.43, "EPHEMERIS_TYPE": 0, "CLASSIFICATION_TYPE": "U", "NORAD_CAT_ID": 34752, "ELEMENT_SET_NO": 999, "REV_AT_EPOCH": 89875, "BSTAR": 0.0010507924, "MEAN_MOTION_DOT": 0.00013365, "MEAN_MOTION_DDOT": 0}, "tle": {"line1": "1 34752U 93036ZW  25348.44677900  .00013365  00000+0  10508-2 0  9994", "line2": "2 34752  74.0136 357.1306 0047635 125.1365 235.4300 14.99982299898753"}}, "geometry": {"type": "Point", "coordinates": [9.3019299596388, 40.59657461461586]}}, {"type": "Feature", "properties": {"norad_id": 34754, "name": "COSMOS 2251 DEB", "group": "cosmos-2251-debris", "lat": 22.819953260917, "lon": 35.65964902118436, "alt_km": 777.2877791564597, "timestamp": "2025-12-15T10:55:21.539824+00:00", "meta": {"OBJECT_NAME": "COSMOS 2251 DEB", "OBJECT_ID": "1993-036ZY", "EPOCH": "2025-12-14T19:45:22.230144", "MEAN_MOTION": 14.40484839, "ECCENTRICITY": 0.00296461, "INCLINATION": 74.03, "RA_OF_ASC_NODE": 223.7488, "ARG_OF_PERICENTER": 339.4686, "MEAN_ANOMALY": 140.8856, "EPHEMERIS_TYPE": 0, "CLASSIFICATION_TYPE": "U", "NORAD_CAT_ID": 34754, "ELEMENT_SET_NO": 999, "REV_AT_EPOCH": 88163, "BSTAR": 0.00024020085, "MEAN_MOTION_DOT": 7.41e-06, "MEAN_MOTION_DDOT": 0}, "tle": {"line1": "1 34754U 93036ZY  25348.82317396  .00000741  00000+0  24020-3 0  9997", "line2": "2 34754  74.0300 223.7488 0029646 339.4686 140.8856 14.40484839881632"}}, "geometry": {"type": "Point", "coordinates": [35.65964902118436, 22.819953260917]}}, {"type": "Feature", "properties": {"norad_id": 34755, "name": "COSMOS 2251 DEB", "group": "cosmos-2251-debris", "lat": 66.26451410726959, "lon": 64.68768812375835, "alt_km": 1352.498588923364, "timestamp": "2025-12-15T10:55:21.539835+00:00", "meta": {"OBJECT_NAME": "COSMOS 2251 DEB", "OBJECT_ID": "1993-036ZZ", "EPOCH": "2025-12-14T20:18:02.385216", "MEAN_MOTION": 13.50565417, "ECCENTRICITY": 0.04082447, "INCLINATION": 73.9259, "RA_OF_ASC_NODE": 286.6394, "ARG_OF_PERICENTER": 306.0897, "MEAN_ANOMALY": 79.0347, "EPHEMERIS_TYPE": 0, "CLASSIFICATION_TYPE": "U", "NORAD_CAT_ID": 34755, "ELEMENT_SET_NO": 999, "REV_AT_EPOCH": 82552, "BSTAR": 0.0012616054, "MEAN_MOTION_DOT": 1.337e-05, "MEAN_MOTION_DDOT": 0}, "tle": {"line1": "1 34755U 93036ZZ  25348.84586094  .00001337  00000+0  12616-2 0  9992", "line2": "2 34755  73.9259 286.6394 0408244 306.0897  79.0347 13.50565417825523"}}, "geometry": {"type": "Point", "coordinates": [64.68768812375835, 66.26451410726959]}}, {"type": "Feature", "properties": {"norad_id": 34756, "name": "COSMOS 2251 DEB", "group": "cosmos-2251-debris", "lat": 5.788871263173173, "lon": -81.76158906994176, "alt_km": 1251.7713288167424, "timestamp": "2025-12-15T10:55:21.539846+00:00", "meta": {"OBJECT_NAME": "COSMOS 2251 DEB", "OBJECT_ID": "1993-036AAA", "EPOCH": "2025-12-14T07:43:16.554432", "MEAN_MOTION": 13.67247227, "ECCENTRICITY": 0.03451481, "INCLINATION": 74.003, "RA_OF_ASC_NODE": 101.7681, "ARG_OF_PERICENTER": 337.239, "MEAN_ANOMALY": 21.3726, "EPHEMERIS_TYPE": 0, "CLASSIFICATION_TYPE": "U", "NORAD_CAT_ID": 34756, "ELEMENT_SET_NO": 999, "REV_AT_EPOCH": 83443, "BSTAR": 0.0011801909, "MEAN_MOTION_DOT": 1.473e-05, "MEAN_MOTION_DDOT": 0}, "tle": {"line1": "1 34756U 93036AAA 25348.32171938  .00001473  00000+0  11802-2 0  9990", "line2": "2 34756  74.0030 101.7681 0345148 337.2390  21.3726 13.67247227834431"}}, "geometry": {"type": "Point", "coordinates": [-81.76158906994176, 5.788871263173173]}}, {"type": "Feature", "properties": {"norad_id": 34758, "name": "COSMOS 2251 DEB", "group": "cosmos-2251-debris", "lat": -20.063642264150776, "lon": 121.09970907135586, "alt_km": 1268.1573601299951, "timestamp": "2025-12-15T10:55:21.539857+00:00", "meta": {"OBJECT_NAME": "COSMOS 2251 DEB", "OBJECT_ID": "1993-036AAC", "EPOCH": "2025-12-14T14:31:19.899552", "MEAN_MOTION": 13.5807592, "ECCENTRICITY": 0.03814046, "INCLINATION": 74.1076, "RA_OF_ASC_NODE": 296.4949, "ARG_OF_PERICENTER": 59.7689, "MEAN_ANOMALY": 304.0608, "EPHEMERIS_TYPE": 0, "CLASSIFICATION_TYPE": "U", "NORAD_CAT_ID": 34758, "ELEMENT_SET_NO": 999, "REV_AT_EPOCH": 82935, "BSTAR": 0.0016031899, "MEAN_MOTION_DOT": 1.847e-05, "MEAN_MOTION_DDOT": 0}, "tle": {"line1": "1 34758U 93036AAC 25348.60509143  .00001847  00000+0  16032-2 0  9991", "line2": "2 34758  74.1076 296.4949 0381404  59.7689 304.0608 13.58075920829359"}}, "geometry": {"type": "Point", "coordinates": [121.09970907135586, -20.063642264150776]}}, {"type": "Feature", "properties": {"norad_id": 34760, "name": "COSMOS 2251 DEB", "group": "cosmos-2251-debris", "lat": -30.15198430455314, "lon": -72.0397361596818, "alt_km": 766.8413411409811, "timestamp": "2025-12-15T10:55:21.539867+00:00", "meta": {"OBJECT_NAME": "COSMOS 2251 DEB", "OBJECT_ID": "1993-036AAE", "EPOCH": "2025-12-14T15:36:34.134912", "MEAN_MOTION": 14.19576893, "ECCENTRICITY": 0.00968859, "INCLINATION": 74.0637, "RA_OF_ASC_NODE": 298.9496, "ARG_OF_PERICENTER": 350.6486, "MEAN_ANOMALY": 187.4946, "EPHEMERIS_TYPE": 0, "CLASSIFICATION_TYPE": "U", "NORAD_CAT_ID": 34760, "ELEMENT_SET_NO": 999, "REV_AT_EPOCH": 86715, "BSTAR": 0.00083829152, "MEAN_MOTION_DOT": 1.829e-05, "MEAN_MOTION_DDOT": 0}, "tle": {"line1": "1 34760U 93036AAE 25348.65039508  .00001829  00000+0  83829-3 0  9991", "line2": "2 34760  74.0637 298.9496 0096885 350.6486 187.4946 14.19576893867153"}}, "geometry": {"type": "Point", "coordinates": [-72.0397361596818, -30.15198430455314]}}, {"type": "Feature", "properties": {"norad_id": 34761, "name": "COSMOS 2251 DEB", "group": "cosmos-2251-debris", "lat": 64.3739669803892, "lon": 34.444283034993795, "alt_km": 737.8704966567402, "timestamp": "2025-12-15T10:55:21.539877+00:00", "meta": {"OBJECT_NAME": "COSMOS 2251 DEB", "OBJECT_ID": "1993-036AAF", "EPOCH": "2025-12-14T17:54:22.077504", "MEAN_MOTION": 14.38057425, "ECCENTRICITY": 0.00365037, "INCLINATION": 74.0295, "RA_OF_ASC_NODE": 359.0941, "ARG_OF_PERICENTER": 32.5875, "MEAN_ANOMALY": 327.7521, "EPHEMERIS_TYPE": 0, "CLASSIFICATION_TYPE": "U", "NORAD_CAT_ID": 34761, "ELEMENT_SET_NO": 999, "REV_AT_EPOCH": 87678, "BSTAR": 0.00063250897, "MEAN_MOTION_DOT": 1.904e-05, "MEAN_MOTION_DDOT": 0}, "tle": {"line1": "1 34761U 93036AAF 25348.74608886  .00001904  00000+0  63251-3 0  9994", "line2": "2 34761  74.0295 359.0941 0036503  32.5875 327.7521 14.38057425876780"}}, "geometry": {"type": "Point", "coordinates": [34.444283034993795, 64.3739669803892]}}, {"type": "Feature", "properties": {"norad_id": 34784, "name": "COSMOS 2251 DEB", "group": "cosmos-2251-debris", "lat": 16.38057591191346, "lon": 134.32346107361855, "alt_km": 662.2770365635151, "timestamp": "2025-12-15T10:55:21.539888+00:00", "meta": {"OBJECT_NAME": "COSMOS 2251 DEB", "OBJECT_ID": "1993-036AAM", "EPOCH": "2025-12-14T04:35:53.077056", "MEAN_MOTION": 14.60788851, "ECCENTRICITY": 0.00493598, "INCLINATION": 74.0073, "RA_OF_ASC_NODE": 321.5768, "ARG_OF_PERICENTER": 130.4693, "MEAN_ANOMALY": 230.0793, "EPHEMERIS_TYPE": 0, "CLASSIFICATION_TYPE": "U", "NORAD_CAT_ID": 34784, "ELEMENT_SET_NO": 999, "REV_AT_EPOCH": 88556, "BSTAR": 0.00058492996, "MEAN_MOTION_DOT": 2.876e-05, "MEAN_MOTION_DDOT": 0}, "tle": {"line1": "1 34784U 93036AAM 25348.19158654  .00002876  00000+0  58493-3 0  9992", "line2": "2 34784  74.0073 321.5768 0049359 130.4693 230.0793 14.60788851885561"}}, "geometry": {"type": "Point", "coordinates": [134.32346107361855, 16.38057591191346]}}]}